CCSDS_OMM_VERS = 2.0
CREATION_DATE  = 
ORIGINATOR     = 

OBJECT_NAME    = ATLAS CENTAUR 2
OBJECT_ID      = 1963-047A
CENTER_NAME    = EARTH
REF_FRAME      = TEME
TIME_SYSTEM    = UTC
MEAN_ELEMENT_THEORY = SGP/SGP4

EPOCH          = 2026-02-15T18:29:20.026752
MEAN_MOTION    = 14.12005428
ECCENTRICITY   = .05481047
INCLINATION    = 30.3580
RA_OF_ASC_NODE = 318.1350
ARG_OF_PERICENTER = 247.1372
MEAN_ANOMALY   = 107.0464

EPHEMERIS_TYPE = 0
CLASSIFICATION_TYPE = U
NORAD_CAT_ID   = 694
ELEMENT_SET_NO = 999
REV_AT_EPOCH   = 12852
BSTAR          = .16482373E-3
MEAN_MOTION_DOT = .1471E-4
MEAN_MOTION_DDOT = 0

CCSDS_OMM_VERS = 2.0
CREATION_DATE  = 
ORIGINATOR     = 

OBJECT_NAME    = THOR AGENA D R/B
OBJECT_ID      = 1964-002A
CENTER_NAME    = EARTH
REF_FRAME      = TEME
TIME_SYSTEM    = UTC
MEAN_ELEMENT_THEORY = SGP/SGP4

EPOCH          = 2026-02-15T23:05:26.225376
MEAN_MOTION    = 14.34006530
ECCENTRICITY   = .00323396
INCLINATION    = 99.1229
RA_OF_ASC_NODE = 59.1159
ARG_OF_PERICENTER = 323.3074
MEAN_ANOMALY   = 36.5895

EPHEMERIS_TYPE = 0
CLASSIFICATION_TYPE = U
NORAD_CAT_ID   = 733
ELEMENT_SET_NO = 999
REV_AT_EPOCH   = 23518
BSTAR          = .10715497E-3
MEAN_MOTION_DOT = .252E-5
MEAN_MOTION_DDOT = 0

CCSDS_OMM_VERS = 2.0
CREATION_DATE  = 
ORIGINATOR     = 

OBJECT_NAME    = SL-3 R/B
OBJECT_ID      = 1964-053B
CENTER_NAME    = EARTH
REF_FRAME      = TEME
TIME_SYSTEM    = UTC
MEAN_ELEMENT_THEORY = SGP/SGP4

EPOCH          = 2026-02-15T22:18:43.576992
MEAN_MOTION    = 14.61344802
ECCENTRICITY   = .0078724
INCLINATION    = 65.0770
RA_OF_ASC_NODE = 35.0298
ARG_OF_PERICENTER = 299.1530
MEAN_ANOMALY   = 60.1708

EPHEMERIS_TYPE = 0
CLASSIFICATION_TYPE = U
NORAD_CAT_ID   = 877
ELEMENT_SET_NO = 999
REV_AT_EPOCH   = 26361
BSTAR          = .10321584E-3
MEAN_MOTION_DOT = .408E-5
MEAN_MOTION_DDOT = 0

CCSDS_OMM_VERS = 2.0
CREATION_DATE  = 
ORIGINATOR     = 

OBJECT_NAME    = SL-8 R/B
OBJECT_ID      = 1967-045B
CENTER_NAME    = EARTH
REF_FRAME      = TEME
TIME_SYSTEM    = UTC
MEAN_ELEMENT_THEORY = SGP/SGP4

EPOCH          = 2026-02-15T10:19:27.704928
MEAN_MOTION    = 14.45599484
ECCENTRICITY   = .00633538
INCLINATION    = 74.0109
RA_OF_ASC_NODE = 29.6570
ARG_OF_PERICENTER = 41.4410
MEAN_ANOMALY   = 319.1527

EPHEMERIS_TYPE = 0
CLASSIFICATION_TYPE = U
NORAD_CAT_ID   = 2802
ELEMENT_SET_NO = 999
REV_AT_EPOCH   = 8580
BSTAR          = .1337795E-3
MEAN_MOTION_DOT = .456E-5
MEAN_MOTION_DDOT = 0

CCSDS_OMM_VERS = 2.0
CREATION_DATE  = 
ORIGINATOR     = 

OBJECT_NAME    = SL-8 R/B
OBJECT_ID      = 1968-040B
CENTER_NAME    = EARTH
REF_FRAME      = TEME
TIME_SYSTEM    = UTC
MEAN_ELEMENT_THEORY = SGP/SGP4

EPOCH          = 2026-02-15T22:42:43.569504
MEAN_MOTION    = 15.03093039
ECCENTRICITY   = .00249386
INCLINATION    = 74.0331
RA_OF_ASC_NODE = 358.1127
ARG_OF_PERICENTER = 188.7304
MEAN_ANOMALY   = 171.3455

EPHEMERIS_TYPE = 0
CLASSIFICATION_TYPE = U
NORAD_CAT_ID   = 3230
ELEMENT_SET_NO = 999
REV_AT_EPOCH   = 8674
BSTAR          = .31851867E-3
MEAN_MOTION_DOT = .4285E-4
MEAN_MOTION_DDOT = 0

CCSDS_OMM_VERS = 2.0
CREATION_DATE  = 
ORIGINATOR     = 

OBJECT_NAME    = OAO 2
OBJECT_ID      = 1968-110A
CENTER_NAME    = EARTH
REF_FRAME      = TEME
TIME_SYSTEM    = UTC
MEAN_ELEMENT_THEORY = SGP/SGP4

EPOCH          = 2026-02-15T08:41:17.393568
MEAN_MOTION    = 14.47293997
ECCENTRICITY   = .00052853
INCLINATION    = 34.9946
RA_OF_ASC_NODE = 29.8807
ARG_OF_PERICENTER = 12.8278
MEAN_ANOMALY   = 347.2546

EPHEMERIS_TYPE = 0
CLASSIFICATION_TYPE = U
NORAD_CAT_ID   = 3597
ELEMENT_SET_NO = 999
REV_AT_EPOCH   = 1586
BSTAR          = .88170207E-4
MEAN_MOTION_DOT = .308E-5
MEAN_MOTION_DDOT = 0

CCSDS_OMM_VERS = 2.0
CREATION_DATE  = 
ORIGINATOR     = 

OBJECT_NAME    = ISIS 1
OBJECT_ID      = 1969-009A
CENTER_NAME    = EARTH
REF_FRAME      = TEME
TIME_SYSTEM    = UTC
MEAN_ELEMENT_THEORY = SGP/SGP4

EPOCH          = 2026-02-15T20:35:00.090816
MEAN_MOTION    = 11.30406332
ECCENTRICITY   = .17078764
INCLINATION    = 88.4555
RA_OF_ASC_NODE = 157.6872
ARG_OF_PERICENTER = 133.2098
MEAN_ANOMALY   = 242.4951

EPHEMERIS_TYPE = 0
CLASSIFICATION_TYPE = U
NORAD_CAT_ID   = 3669
ELEMENT_SET_NO = 999
REV_AT_EPOCH   = 34606
BSTAR          = .16957139E-3
MEAN_MOTION_DOT = .259E-5
MEAN_MOTION_DDOT = 0

CCSDS_OMM_VERS = 2.0
CREATION_DATE  = 
ORIGINATOR     = 

OBJECT_NAME    = SERT 2
OBJECT_ID      = 1970-009A
CENTER_NAME    = EARTH
REF_FRAME      = TEME
TIME_SYSTEM    = UTC
MEAN_ELEMENT_THEORY = SGP/SGP4

EPOCH          = 2026-02-15T19:51:03.320064
MEAN_MOTION    = 13.58727543
ECCENTRICITY   = .00042009
INCLINATION    = 99.2732
RA_OF_ASC_NODE = 351.1203
ARG_OF_PERICENTER = 213.3945
MEAN_ANOMALY   = 201.3648

EPHEMERIS_TYPE = 0
CLASSIFICATION_TYPE = U
NORAD_CAT_ID   = 4327
ELEMENT_SET_NO = 999
REV_AT_EPOCH   = 77692
BSTAR          = .44911146E-4
MEAN_MOTION_DOT = -.8E-7
MEAN_MOTION_DDOT = 0

CCSDS_OMM_VERS = 2.0
CREATION_DATE  = 
ORIGINATOR     = 

OBJECT_NAME    = SL-3 R/B
OBJECT_ID      = 1971-028B
CENTER_NAME    = EARTH
REF_FRAME      = TEME
TIME_SYSTEM    = UTC
MEAN_ELEMENT_THEORY = SGP/SGP4

EPOCH          = 2026-02-15T21:55:44.935392
MEAN_MOTION    = 15.59316092
ECCENTRICITY   = .00166706
INCLINATION    = 81.2328
RA_OF_ASC_NODE = 78.8922
ARG_OF_PERICENTER = 11.3946
MEAN_ANOMALY   = 348.7679

EPHEMERIS_TYPE = 0
CLASSIFICATION_TYPE = U
NORAD_CAT_ID   = 5118
ELEMENT_SET_NO = 999
REV_AT_EPOCH   = 98527
BSTAR          = .45511913E-3
MEAN_MOTION_DOT = .36181E-3
MEAN_MOTION_DDOT = 0

CCSDS_OMM_VERS = 2.0
CREATION_DATE  = 
ORIGINATOR     = 

OBJECT_NAME    = ASTEX 1
OBJECT_ID      = 1971-089A
CENTER_NAME    = EARTH
REF_FRAME      = TEME
TIME_SYSTEM    = UTC
MEAN_ELEMENT_THEORY = SGP/SGP4

EPOCH          = 2026-02-15T19:40:04.818144
MEAN_MOTION    = 14.50744260
ECCENTRICITY   = .00167423
INCLINATION    = 92.7147
RA_OF_ASC_NODE = 144.6847
ARG_OF_PERICENTER = 151.4396
MEAN_ANOMALY   = 208.7731

EPHEMERIS_TYPE = 0
CLASSIFICATION_TYPE = U
NORAD_CAT_ID   = 5560
ELEMENT_SET_NO = 999
REV_AT_EPOCH   = 85913
BSTAR          = .14146255E-3
MEAN_MOTION_DOT = .556E-5
MEAN_MOTION_DDOT = 0

CCSDS_OMM_VERS = 2.0
CREATION_DATE  = 
ORIGINATOR     = 

OBJECT_NAME    = SL-8 R/B
OBJECT_ID      = 1971-119B
CENTER_NAME    = EARTH
REF_FRAME      = TEME
TIME_SYSTEM    = UTC
MEAN_ELEMENT_THEORY = SGP/SGP4

EPOCH          = 2026-02-15T22:38:42.139392
MEAN_MOTION    = 14.37162733
ECCENTRICITY   = .05527229
INCLINATION    = 73.8844
RA_OF_ASC_NODE = 216.3450
ARG_OF_PERICENTER = 187.4594
MEAN_ANOMALY   = 171.8092

EPHEMERIS_TYPE = 0
CLASSIFICATION_TYPE = U
NORAD_CAT_ID   = 5730
ELEMENT_SET_NO = 999
REV_AT_EPOCH   = 65236
BSTAR          = .801342E-3
MEAN_MOTION_DOT = .15454E-3
MEAN_MOTION_DDOT = 0

CCSDS_OMM_VERS = 2.0
CREATION_DATE  = 
ORIGINATOR     = 

OBJECT_NAME    = OAO 3 (COPERNICUS)
OBJECT_ID      = 1972-065A
CENTER_NAME    = EARTH
REF_FRAME      = TEME
TIME_SYSTEM    = UTC
MEAN_ELEMENT_THEORY = SGP/SGP4

EPOCH          = 2026-02-15T11:00:27.087840
MEAN_MOTION    = 14.59978251
ECCENTRICITY   = .000684
INCLINATION    = 35.0059
RA_OF_ASC_NODE = 63.9703
ARG_OF_PERICENTER = 334.0522
MEAN_ANOMALY   = 175.7130

EPHEMERIS_TYPE = 0
CLASSIFICATION_TYPE = U
NORAD_CAT_ID   = 6153
ELEMENT_SET_NO = 999
REV_AT_EPOCH   = 84294
BSTAR          = .10160318E-3
MEAN_MOTION_DOT = .474E-5
MEAN_MOTION_DDOT = 0

