ATLAS CENTAUR 2         
1 00694U 63047A   26046.77037068  .00001471  00000+0  16482-3 0  9991
2 00694  30.3580 318.1350 0548104 247.1372 107.0464 14.12005428128526
THOR AGENA D R/B        
1 00733U 64002A   26046.96210909  .00000252  00000+0  10715-3 0  9994
2 00733  99.1229  59.1159 0032339 323.3074  36.5895 14.34006530235180
SL-3 R/B                
1 00877U 64053B   26046.92967103  .00000408  00000+0  10322-3 0  9997
2 00877  65.0770  35.0298 0078724 299.1530  60.1708 14.61344802263616
SL-8 R/B                
1 02802U 67045B   26046.43018177  .00000456  00000+0  13378-3 0  9992
2 02802  74.0109  29.6570 0063353  41.4410 319.1527 14.45599484 85800
SL-8 R/B                
1 03230U 68040B   26046.94633761  .00004285  00000+0  31852-3 0  9993
2 03230  74.0331 358.1127 0024938 188.7304 171.3455 15.03093039 86746
OAO 2                   
1 03597U 68110A   26046.36200687  .00000308  00000+0  88170-4 0  9998
2 03597  34.9946  29.8807 0005285  12.8278 347.2546 14.47293997 15869
ISIS 1                  
1 03669U 69009A   26046.85763994  .00000259  00000+0  16957-3 0  9993
2 03669  88.4555 157.6872 1707876 133.2098 242.4951 11.30406332346068
SERT 2                  
1 04327U 70009A   26046.82712176 -.00000008  00000+0  44911-4 0  9995
2 04327  99.2732 351.1203 0004200 213.3945 201.3648 13.58727543776928
SL-3 R/B                
1 05118U 71028B   26046.91371453  .00036181  00000+0  45512-3 0  9992
2 05118  81.2328  78.8922 0016670  11.3946 348.7679 15.59316092985277
ASTEX 1                 
1 05560U 71089A   26046.81950021  .00000556  00000+0  14146-3 0  9999
2 05560  92.7147 144.6847 0016742 151.4396 208.7731 14.50744260859138
SL-8 R/B                
1 05730U 71119B   26046.94354328  .00015454  00000+0  80134-3 0  9997
2 05730  73.8844 216.3450 0552722 187.4594 171.8092 14.37162733652360
OAO 3 (COPERNICUS)      
1 06153U 72065A   26046.45864685  .00000474  00000+0  10160-3 0  9994
2 06153  35.0059  63.9703 0006840 334.0522 175.7130 14.59978251842946
